ONEWEB-0055             
1 45443U 20020V   24043.43499969 -.00000524  00000+0 -15135-2 0  9999
2 45443  87.8997 191.1735 0001570  97.0179 263.1128 13.11416136190452
ONEWEB-0093             
1 45444U 20020W   24043.40823381  .00000404  00000+0  11049-2 0  9991
2 45444  87.8998 191.1576 0001767  94.0966 266.0364 13.11415168190511
ONEWEB-0029             
1 45445U 20020X   24043.42769821 -.00000374  00000+0 -10910-2 0  9996
2 45445  87.8998 191.1677 0001762 106.2049 253.9273 13.11415681190498
ONEWEB-0068             
1 45446U 20020Y   24043.47884808  .00000437  00000+0  11980-2 0  9991
2 45446  87.8999 191.1426 0001686  96.5269 263.6051 13.11415078190449
ONEWEB-0046             
1 45447U 20020Z   24043.78159887  .00000818  00000+0  22711-2 0  9995
2 45447  87.8998 191.0949 0001665 114.2703 245.8599 13.11417405190508
ONEWEB-0063             
1 45448U 20020AA  24043.42933125 -.00000464  00000+0 -13464-2 0  9996
2 45448  87.8996 191.1667 0001424 117.5599 242.5673 13.11415149190530
ONEWEB-0019             
1 45449U 20020AB  24043.47965499  .00000470  00000+0  12902-2 0  9992
2 45449  87.9001 191.1546 0001326  97.9567 262.1711 13.11417300190387
ONEWEB-0094             
1 45450U 20020AC  24043.42269120 -.00000013  00000+0 -66402-4 0  9998
2 45450  87.9249 176.0422 0001621 104.0221 256.1092 13.19253217193610
ONEWEB-0087             
1 45451U 20020AD  24043.43581215 -.00000536  00000+0 -15485-2 0  9995
2 45451  87.8992 191.1438 0001808 106.2297 253.9030 13.11417145190421
ONEWEB-0082             
1 45452U 20020AE  24043.81892675 -.00000512  00000+0 -14791-2 0  9996
2 45452  87.9000 191.0667 0001530 100.1900 259.9400 13.11417196190571
ONEWEB-0050             
1 45453U 20020AF  24043.58334491 -.00023956  00000+0 -25832-2 0  9993
2 45453  87.9962  59.9373 0023981 150.5912 148.1154 14.88454268  5746
ONEWEB-0034             
1 45454U 20020AG  24043.83841037  .00000130  00000+0  33114-3 0  9991
2 45454  87.8999 191.0806 0001560 100.4617 259.6686 13.11416417190494
ONEWEB-0060             
1 45455U 20020AH  24043.77023383  .00000415  00000+0  11362-2 0  9997
2 45455  87.9003 191.0901 0001608 104.5469 255.5838 13.11417539190446
ONEWEB-0086             
1 45456U 20020AJ  24043.48290624  .00000414  00000+0  11331-2 0  9995
2 45456  87.8995 191.1528 0001999 102.0306 258.1046 13.11414578190459
ONEWEB-0088             
1 45457U 20020AK  24043.46017321  .00000304  00000+0  82126-3 0  9994
2 45457  87.8995 191.1278 0001654 105.9401 254.1910 13.11418199190389
ONEWEB-0102             
1 47258U 20100A   24043.37354895  .00000088  00000+0  20924-3 0  9991
2 47258  87.9044 160.9765 0001413 104.0713 256.0573 13.12446252152476
ONEWEB-0109             
1 47259U 20100B   24043.83890974  .00000393  00000+0  10583-2 0  9994
2 47259  87.9046 160.8474 0001509 102.2826 257.8472 13.12443650152360
ONEWEB-0110             
1 47260U 20100C   24043.40530563  .00000100  00000+0  24387-3 0  9998
2 47260  87.9037 160.9453 0001609  98.3164 261.8147 13.12441623152475
ONEWEB-0111             
1 47261U 20100D   24043.36242366  .00000834  00000+0  22824-2 0  9992
2 47261  87.9046 160.9447 0002382 107.6114 252.5275 13.12436548152308
ONEWEB-0114             
1 47262U 20100E   24043.39260681  .00000426  00000+0  11483-2 0  9992
2 47262  87.9040 160.9592 0001081 102.2453 257.8796 13.12442556152263
ONEWEB-0117             
1 47263U 20100F   24043.38466850  .00000481  00000+0  13019-2 0  9996
2 47263  87.9044 160.9307 0001677 105.7929 254.3384 13.12443057152272
ONEWEB-0118             
1 47264U 20100G   24043.34018159 -.00000173  00000+0 -51571-3 0  9994
2 47264  87.9042 160.9441 0001108 119.5193 240.6046 13.12442315152465
ONEWEB-0119             
1 47265U 20100H   24043.82619972 -.00000083  00000+0 -26639-3 0  9995
2 47265  87.9044 160.8864 0001659 100.7252 259.4064 13.12444126152500
ONEWEB-0120             
1 47266U 20100J   24043.39396944  .00000892  00000+0  24253-2 0  9994
2 47266  87.9041 160.9609 0001127 103.0999 257.0255 13.12936440152477
ONEWEB-0121             
1 47267U 20100K   24043.83732145  .00000277  00000+0  73466-3 0  9999
2 47267  87.9040 160.8693 0001771 102.0299 258.1028 13.12443466152444
ONEWEB-0122             
1 47268U 20100L   24043.37499874  .00000444  00000+0  11982-2 0  9998
2 47268  87.9043 160.9645 0001433  96.3380 263.7912 13.12443936152296
ONEWEB-0123             
1 47269U 20100M   24043.82778761 -.00000048  00000+0 -16781-3 0  9999
2 47269  87.9044 160.8851 0001577 105.1709 254.9594 13.12444234152491
ONEWEB-0124             
1 47270U 20100N   24043.35924138 -.00000286  00000+0 -83088-3 0  9998
2 47270  87.9045 160.9736 0001877 100.7026 259.4314 13.12444937152314
ONEWEB-0125             
1 47271U 20100P   24043.33383155  .00000025  00000+0  35477-4 0  9994
2 47271  87.9043 160.9357 0001811 117.5890 242.5423 13.12442377152371
ONEWEB-0126             
1 47272U 20100Q   24043.36161408 -.00000322  00000+0 -93140-3 0  9995
2 47272  87.9040 160.9419 0001466 103.3427 256.7865 13.12441702152449
ONEWEB-0127             
1 47273U 20100R   24043.39895863  .00000288  00000+0  76400-3 0  9997
2 47273  87.9046 160.9588 0001453 103.3571 256.7720 13.12442079152470
ONEWEB-0128             
1 47274U 20100S   24043.34494660 -.00000316  00000+0 -91340-3 0  9997
2 47274  87.9050 160.9648 0001736  92.2892 267.8436 13.12442425152482
ONEWEB-0129             
1 47275U 20100T   24043.32430948  .00000336  00000+0  89741-3 0  9997
2 47275  87.9044 160.9438 0000200 357.4704   2.6423 13.12442842152413
ONEWEB-0130             
1 47276U 20100U   24043.35289060 -.00000389  00000+0 -11165-2 0  9992
2 47276  87.9043 160.9483 0001553  96.2580 263.8726 13.12443331152382
ONEWEB-0131             
1 47277U 20100V   24043.34971639 -.00000486  00000+0 -13850-2 0  9993
2 47277  87.9045 160.9599 0001654 100.0990 260.0325 13.12442679152427
ONEWEB-0132             
1 47278U 20100W   24043.37830568  .00000316  00000+0  84292-3 0  9991
2 47278  87.9046 160.9563 0001897 107.4813 252.6523 13.12443244152329
ONEWEB-0133             
1 47279U 20100X   24043.77538170  .00000661  00000+0  18030-2 0  9999
2 47279  87.9039 160.8833 0001725 101.2120 258.9203 13.12441437152533
ONEWEB-0134             
1 47280U 20100Y   24043.36400759 -.00000157  00000+0 -47124-3 0  9996
2 47280  87.9038 160.9539 0001582  94.1017 266.0292 13.12448368152453
ONEWEB-0135             
1 47281U 20100Z   24043.33224420  .00000074  00000+0  17069-3 0  9994
2 47281  87.9043 160.9687 0001626 101.3207 258.8104 13.12442382152478
ONEWEB-0136             
1 47282U 20100AA  24043.35447706 -.00000367  00000+0 -10565-2 0  9991
2 47282  87.9043 160.9330 0001483  82.8210 277.3087 13.12443258152404
ONEWEB-0137             
1 47283U 20100AB  24043.38784354  .00000487  00000+0  13193-2 0  9999
2 47283  87.9039 160.9568 0001441 107.6598 252.4688 13.12442659152317
ONEWEB-0138             
1 47284U 20100AC  24043.82460880 -.00000167  00000+0 -49954-3 0  9996
2 47284  87.9040 160.8825 0001550 103.9199 256.2102 13.12444487152451
ONEWEB-0139             
1 47285U 20100AD  24043.33859700 -.00000126  00000+0 -38628-3 0  9997
2 47285  87.9044 160.9455 0001606 101.1947 258.9363 13.12442624152469
ONEWEB-0140             
1 47286U 20100AE  24043.81825423 -.00000293  00000+0 -84977-3 0  9999
2 47286  87.9043 160.8596 0001539  96.0627 264.0677 13.12443983152483
ONEWEB-0141             
1 47287U 20100AF  24043.83811114  .00000304  00000+0  80833-3 0  9992
2 47287  87.9041 160.8532 0001658 112.9182 247.2121 13.12443836152482
ONEWEB-0142             
1 47288U 20100AG  24043.37432970  .00000176  00000+0  45471-3 0  9997
2 47288  87.9041 160.9379 0001314 105.3403 254.7870 13.12444818152412
ONEWEB-0143             
1 47289U 20100AH  24043.40372210  .00000116  00000+0  28680-3 0  9999
2 47289  87.9041 160.9508 0001624 106.5038 253.6269 13.12441567152393
ONEWEB-0144             
1 47290U 20100AJ  24043.83413464  .00000156  00000+0  39959-3 0  9990
2 47290  87.9043 160.8505 0001225 100.6933 259.4334 13.12445178152376
ONEWEB-0145             
1 47291U 20100AK  24043.34812252 -.00000380  00000+0 -10913-2 0  9994
2 47291  87.9041 160.9696 0001463 105.4421 254.6870 13.12442769152506
ONEWEB-0146             
1 47292U 20100AL  24043.34335857 -.00000270  00000+0 -78456-3 0  9991
2 47292  87.9042 160.9524 0002097 109.6566 250.4789 13.12442469152418
ONEWEB-0147             
1 47293U 20100AM  24043.38625580  .00000451  00000+0  12188-2 0  9999
2 47293  87.9039 160.9433 0001584  91.6969 268.4341 13.12442583152310
ONEWEB-0115             
1 48042U 21025A   24043.24394206  .00000189  00000+0  48213-3 0  9999
2 48042  87.8994 130.6275 0001942 104.0147 256.1198 13.13470501141230
ONEWEB-0152             
1 48043U 21025B   24043.78988609 -.00000030  00000+0 -11819-3 0  9994
2 48043  87.8998 130.5114 0001797  97.6722 262.4612 13.13469411141273
ONEWEB-0153             
1 48044U 21025C   24043.76766449  .00000343  00000+0  90505-3 0  9993
2 48044  87.9000 130.5010 0001696 104.0235 256.1083 13.13470803141262
ONEWEB-0154             
1 48045U 21025D   24043.61213915  .00000242  00000+0  62818-3 0  9997
2 48045  87.8998 130.5469 0001785 102.9807 257.1521 13.13469552141196
ONEWEB-0116             
1 48046U 21025E   24043.27251416 -.00000209  00000+0 -60655-3 0  9990
2 48046  87.8997 130.5789 0001952 100.3218 259.8131 13.13469950141294
ONEWEB-0150             
1 48047U 21025F   24043.78036562  .00000189  00000+0  48353-3 0  9996
2 48047  87.8994 130.5045 0001648 107.6057 252.5252 13.13469465141251
ONEWEB-0107             
1 48048U 21025G   24043.24871307  .00000047  00000+0  95026-4 0  9995
2 48048  87.8996 130.6082 0001462 109.6136 250.5151 13.13469333141160
ONEWEB-0101             
1 48049U 21025H   24043.74545673  .00000077  00000+0  17553-3 0  9996
2 48049  87.8998 130.5184 0001729  98.9230 261.2095 13.13470292141203
